STARLINK-34834          
1 65295U 25184Y   25324.15520776  .00020538  00000+0  14228-2 0  9992
2 65295  97.6032  14.6031 0000647 141.4625 218.6648 15.05668805 14814
STARLINK-34872          
1 65296U 25184Z   25324.14412303  .00003262  00000+0  23000-3 0  9992
2 65296  97.6051  14.6180 0001576 104.6630 255.4771 15.05675215 14819
STARLINK-34899          
1 65323U 25189A   25324.26309472  .00028995  00000+0  98702-3 0  9994
2 65323  53.1593 354.9649 0001213  40.5336 319.5755 15.30208536 14356
STARLINK-34196          
1 65324U 25189B   25324.24937946  .00025141  00000+0  85789-3 0  9997
2 65324  53.1591 354.8982 0001407  53.1291 306.9838 15.30207313 14308
STARLINK-34911          
1 65325U 25189C   25324.09247973  .00020667  00000+0  70784-3 0  9992
2 65325  53.1609 356.0543 0001796  81.4199 278.7006 15.30206123 14321
STARLINK-34902          
1 65326U 25189D   25324.27681370  .00038993  00000+0  13208-2 0  9994
2 65326  53.1611 355.0706 0001498  95.8828 264.2344 15.30223205 14350
STARLINK-34880          
1 65327U 25189E   25324.27891623  .00025666  00000+0  87549-3 0  9992
2 65327  53.1609 355.0875 0001912  37.6552 322.4582 15.30206923 14353
STARLINK-34885          
1 65328U 25189F   25324.27048307  .00022719  00000+0  77659-3 0  9993
2 65328  53.1613 355.0288 0001449 110.7089 249.4067 15.30210442 14290
STARLINK-34908          
1 65329U 25189G   25324.26626184  .00024718  00000+0  84338-3 0  9991
2 65329  53.1585 355.0022 0001702  98.0630 262.0564 15.30219527 14350
STARLINK-34864          
1 65330U 25189H   25324.25993072  .00026467  00000+0  90211-3 0  9995
2 65330  53.1580 354.9639 0002176  86.9578 273.1671 15.30215895 14358
STARLINK-34918          
1 65331U 25189J   25324.25676850  .00019932  00000+0  68331-3 0  9995
2 65331  53.1577 354.9386 0001782  89.3343 270.7862 15.30198080 14297
STARLINK-33890          
1 65332U 25189K   25324.25782702  .00028071  00000+0  95541-3 0  9997
2 65332  53.1583 354.9407 0002002 107.0601 253.0619 15.30230193 13150
STARLINK-34602          
1 65333U 25189L   25324.24830454 -.00007823  00000+0 -25243-3 0  9991
2 65333  53.1583 354.8835 0001172  89.4888 270.6247 15.30178758 14355
STARLINK-34878          
1 65334U 25189M   25324.33335648  .00003499  00000+0  13024-3 0  9994
2 65334  53.1576 354.5456 0001251  92.9770 352.5586 15.30189441  5864
STARLINK-34874          
1 65335U 25189N   25323.38034551  .00020370  00000+0  69796-3 0  9992
2 65335  53.1597 359.4184 0001319  89.0203 271.0949 15.30201553 14219
STARLINK-34835          
1 65336U 25189P   25324.23260503  .00026788  00000+0  91290-3 0  9999
2 65336  53.1596 355.4983 0001566  92.4621 267.6559 15.30214508 14344
