[{"OBJECT_NAME":"STARLINK-34834","OBJECT_ID":"2025-184Y","EPOCH":"2025-11-20T03:43:29.950464","MEAN_MOTION":15.05668805,"ECCENTRICITY":6.475e-5,"INCLINATION":97.6032,"RA_OF_ASC_NODE":14.6031,"ARG_OF_PERICENTER":141.4625,"MEAN_ANOMALY":218.6648,"EPHEMERIS_TYPE":0,"CLASSIFICATION_TYPE":"U","NORAD_CAT_ID":65295,"ELEMENT_SET_NO":999,"REV_AT_EPOCH":1481,"BSTAR":0.0014227524,"MEAN_MOTION_DOT":0.00020538,"MEAN_MOTION_DDOT":0},{"OBJECT_NAME":"STARLINK-34872","OBJECT_ID":"2025-184Z","EPOCH":"2025-11-20T03:27:32.229792","MEAN_MOTION":15.05675215,"ECCENTRICITY":0.0001576,"INCLINATION":97.6051,"RA_OF_ASC_NODE":14.618,"ARG_OF_PERICENTER":104.663,"MEAN_ANOMALY":255.4771,"EPHEMERIS_TYPE":0,"CLASSIFICATION_TYPE":"U","NORAD_CAT_ID":65296,"ELEMENT_SET_NO":999,"REV_AT_EPOCH":1481,"BSTAR":0.00022999682,"MEAN_MOTION_DOT":3.262e-5,"MEAN_MOTION_DDOT":0},{"OBJECT_NAME":"STARLINK-34899","OBJECT_ID":"2025-189A","EPOCH":"2025-11-20T06:18:51.383808","MEAN_MOTION":15.30208536,"ECCENTRICITY":0.00012133,"INCLINATION":53.1593,"RA_OF_ASC_NODE":354.9649,"ARG_OF_PERICENTER":40.5336,"MEAN_ANOMALY":319.5755,"EPHEMERIS_TYPE":0,"CLASSIFICATION_TYPE":"U","NORAD_CAT_ID":65323,"ELEMENT_SET_NO":999,"REV_AT_EPOCH":1435,"BSTAR":0.00098701708,"MEAN_MOTION_DOT":0.00028995,"MEAN_MOTION_DDOT":0},{"OBJECT_NAME":"STARLINK-34196","OBJECT_ID":"2025-189B","EPOCH":"2025-11-20T05:59:06.385344","MEAN_MOTION":15.30207313,"ECCENTRICITY":0.00014077,"INCLINATION":53.1591,"RA_OF_ASC_NODE":354.8982,"ARG_OF_PERICENTER":53.1291,"MEAN_ANOMALY":306.9838,"EPHEMERIS_TYPE":0,"CLASSIFICATION_TYPE":"U","NORAD_CAT_ID":65324,"ELEMENT_SET_NO":999,"REV_AT_EPOCH":1430,"BSTAR":0.00085789021,"MEAN_MOTION_DOT":0.00025141,"MEAN_MOTION_DDOT":0},{"OBJECT_NAME":"STARLINK-34911","OBJECT_ID":"2025-189C","EPOCH":"2025-11-20T02:13:10.248672","MEAN_MOTION":15.30206123,"ECCENTRICITY":0.00017968,"INCLINATION":53.1609,"RA_OF_ASC_NODE":356.0543,"ARG_OF_PERICENTER":81.4199,"MEAN_ANOMALY":278.7006,"EPHEMERIS_TYPE":0,"CLASSIFICATION_TYPE":"U","NORAD_CAT_ID":65325,"ELEMENT_SET_NO":999,"REV_AT_EPOCH":1432,"BSTAR":0.00070783748,"MEAN_MOTION_DOT":0.00020667,"MEAN_MOTION_DDOT":0},{"OBJECT_NAME":"STARLINK-34902","OBJECT_ID":"2025-189D","EPOCH":"2025-11-20T06:38:36.703680","MEAN_MOTION":15.30223205,"ECCENTRICITY":0.0001498,"INCLINATION":53.1611,"RA_OF_ASC_NODE":355.0706,"ARG_OF_PERICENTER":95.8828,"MEAN_ANOMALY":264.2344,"EPHEMERIS_TYPE":0,"CLASSIFICATION_TYPE":"U","NORAD_CAT_ID":65326,"ELEMENT_SET_NO":999,"REV_AT_EPOCH":1435,"BSTAR":0.001320802,"MEAN_MOTION_DOT":0.00038993,"MEAN_MOTION_DDOT":0},{"OBJECT_NAME":"STARLINK-34880","OBJECT_ID":"2025-189E","EPOCH":"2025-11-20T06:41:38.362272","MEAN_MOTION":15.30206923,"ECCENTRICITY":0.00019126,"INCLINATION":53.1609,"RA_OF_ASC_NODE":355.0875,"ARG_OF_PERICENTER":37.6552,"MEAN_ANOMALY":322.4582,"EPHEMERIS_TYPE":0,"CLASSIFICATION_TYPE":"U","NORAD_CAT_ID":65327,"ELEMENT_SET_NO":999,"REV_AT_EPOCH":1435,"BSTAR":0.00087549004,"MEAN_MOTION_DOT":0.00025666,"MEAN_MOTION_DDOT":0},{"OBJECT_NAME":"STARLINK-34885","OBJECT_ID":"2025-189F","EPOCH":"2025-11-20T06:29:29.737248","MEAN_MOTION":15.30210442,"ECCENTRICITY":0.00014491,"INCLINATION":53.1613,"RA_OF_ASC_NODE":355.0288,"ARG_OF_PERICENTER":110.7089,"MEAN_ANOMALY":249.4067,"EPHEMERIS_TYPE":0,"CLASSIFICATION_TYPE":"U","NORAD_CAT_ID":65328,"ELEMENT_SET_NO":999,"REV_AT_EPOCH":1429,"BSTAR":0.00077659301,"MEAN_MOTION_DOT":0.00022719,"MEAN_MOTION_DDOT":0},{"OBJECT_NAME":"STARLINK-34908","OBJECT_ID":"2025-189G","EPOCH":"2025-11-20T06:23:25.022976","MEAN_MOTION":15.30219527,"ECCENTRICITY":0.00017025,"INCLINATION":53.1585,"RA_OF_ASC_NODE":355.0022,"ARG_OF_PERICENTER":98.063,"MEAN_ANOMALY":262.0564,"EPHEMERIS_TYPE":0,"CLASSIFICATION_TYPE":"U","NORAD_CAT_ID":65329,"ELEMENT_SET_NO":999,"REV_AT_EPOCH":1435,"BSTAR":0.00084337849,"MEAN_MOTION_DOT":0.00024718,"MEAN_MOTION_DDOT":0},{"OBJECT_NAME":"STARLINK-34864","OBJECT_ID":"2025-189H","EPOCH":"2025-11-20T06:14:18.014208","MEAN_MOTION":15.30215895,"ECCENTRICITY":0.00021767,"INCLINATION":53.158,"RA_OF_ASC_NODE":354.9639,"ARG_OF_PERICENTER":86.9578,"MEAN_ANOMALY":273.1671,"EPHEMERIS_TYPE":0,"CLASSIFICATION_TYPE":"U","NORAD_CAT_ID":65330,"ELEMENT_SET_NO":999,"REV_AT_EPOCH":1435,"BSTAR":0.00090210521,"MEAN_MOTION_DOT":0.00026467,"MEAN_MOTION_DDOT":0},{"OBJECT_NAME":"STARLINK-34918","OBJECT_ID":"2025-189J","EPOCH":"2025-11-20T06:09:44.798400","MEAN_MOTION":15.3019808,"ECCENTRICITY":0.00017825,"INCLINATION":53.1577,"RA_OF_ASC_NODE":354.9386,"ARG_OF_PERICENTER":89.3343,"MEAN_ANOMALY":270.7862,"EPHEMERIS_TYPE":0,"CLASSIFICATION_TYPE":"U","NORAD_CAT_ID":65331,"ELEMENT_SET_NO":999,"REV_AT_EPOCH":1429,"BSTAR":0.00068330639,"MEAN_MOTION_DOT":0.00019932,"MEAN_MOTION_DDOT":0},{"OBJECT_NAME":"STARLINK-33890","OBJECT_ID":"2025-189K","EPOCH":"2025-11-20T06:11:16.254528","MEAN_MOTION":15.30230193,"ECCENTRICITY":0.00020021,"INCLINATION":53.1583,"RA_OF_ASC_NODE":354.9407,"ARG_OF_PERICENTER":107.0601,"MEAN_ANOMALY":253.0619,"EPHEMERIS_TYPE":0,"CLASSIFICATION_TYPE":"U","NORAD_CAT_ID":65332,"ELEMENT_SET_NO":999,"REV_AT_EPOCH":1315,"BSTAR":0.00095541451,"MEAN_MOTION_DOT":0.00028071,"MEAN_MOTION_DDOT":0},{"OBJECT_NAME":"STARLINK-34602","OBJECT_ID":"2025-189L","EPOCH":"2025-11-20T05:57:33.512256","MEAN_MOTION":15.30178758,"ECCENTRICITY":0.00011728,"INCLINATION":53.1583,"RA_OF_ASC_NODE":354.8835,"ARG_OF_PERICENTER":89.4888,"MEAN_ANOMALY":270.6247,"EPHEMERIS_TYPE":0,"CLASSIFICATION_TYPE":"U","NORAD_CAT_ID":65333,"ELEMENT_SET_NO":999,"REV_AT_EPOCH":1435,"BSTAR":-0.00025243294,"MEAN_MOTION_DOT":-7.823e-5,"MEAN_MOTION_DDOT":0},{"OBJECT_NAME":"STARLINK-34878","OBJECT_ID":"2025-189M","EPOCH":"2025-11-20T08:00:01.999872","MEAN_MOTION":15.30189441,"ECCENTRICITY":0.00012515,"INCLINATION":53.1576,"RA_OF_ASC_NODE":354.5456,"ARG_OF_PERICENTER":92.977,"MEAN_ANOMALY":352.5586,"EPHEMERIS_TYPE":0,"CLASSIFICATION_TYPE":"U","NORAD_CAT_ID":65334,"ELEMENT_SET_NO":999,"REV_AT_EPOCH":586,"BSTAR":0.0001302414,"MEAN_MOTION_DOT":3.499e-5,"MEAN_MOTION_DDOT":0},{"OBJECT_NAME":"STARLINK-34874","OBJECT_ID":"2025-189N","EPOCH":"2025-11-19T09:07:41.852064","MEAN_MOTION":15.30201553,"ECCENTRICITY":0.00013197,"INCLINATION":53.1597,"RA_OF_ASC_NODE":359.4184,"ARG_OF_PERICENTER":89.0203,"MEAN_ANOMALY":271.0949,"EPHEMERIS_TYPE":0,"CLASSIFICATION_TYPE":"U","NORAD_CAT_ID":65335,"ELEMENT_SET_NO":999,"REV_AT_EPOCH":1421,"BSTAR":0.00069795686,"MEAN_MOTION_DOT":0.0002037,"MEAN_MOTION_DDOT":0},{"OBJECT_NAME":"STARLINK-34835","OBJECT_ID":"2025-189P","EPOCH":"2025-11-20T05:34:57.074592","MEAN_MOTION":15.30214508,"ECCENTRICITY":0.00015667,"INCLINATION":53.1596,"RA_OF_ASC_NODE":355.4983,"ARG_OF_PERICENTER":92.4621,"MEAN_ANOMALY":267.6559,"EPHEMERIS_TYPE":0,"CLASSIFICATION_TYPE":"U","NORAD_CAT_ID":65336,"ELEMENT_SET_NO":999,"REV_AT_EPOCH":1434,"BSTAR":0.0009129027,"MEAN_MOTION_DOT":0.00026788,"MEAN_MOTION_DDOT":0}]
